ONEWEB-0395             
1 50475U 21132G   24187.47076577  .00000413  00000+0  11282-2 0  9998
2 50475  87.8968 162.7371 0001841  91.2808 268.8531 13.11416616123704
ONEWEB-0396             
1 50476U 21132H   24187.21820910  .00000075  00000+0  15766-3 0  9995
2 50476  87.9152 117.1897 0002107  83.1942 276.9429 13.18687118129079
ONEWEB-0397             
1 50477U 21132J   24187.53593360  .00000036  00000+0  57803-4 0  9993
2 50477  87.9153 117.1279 0002317  81.9893 278.1502 13.18684681129099
ONEWEB-0398             
1 50478U 21132K   24187.43855888 -.00000102  00000+0 -32375-3 0  9991
2 50478  87.8965 162.7221 0001631  82.6274 277.5039 13.11419026123603
ONEWEB-0399             
1 50479U 21132L   24187.42496713 -.00000511  00000+0 -14770-2 0  9991
2 50479  87.8967 162.7421 0002384  90.5631 269.5770 13.11415302123593
ONEWEB-0400             
1 50480U 21132M   24186.83250088  .00000046  00000+0  83646-4 0  9991
2 50480  87.9149 117.2704 0001889  74.3745 285.7596 13.18687090127729
ONEWEB-0401             
1 50481U 21132N   24186.87518568 -.00000022  00000+0 -88106-4 0  9998
2 50481  87.9148 117.2591 0002358  79.7473 280.3925 13.18685932127733
ONEWEB-0402             
1 50482U 21132P   24186.84040486  .00000017  00000+0  92564-5 0  9991
2 50482  87.9147 117.2630 0002893  79.1262 281.0196 13.18692296127752
